{
  "type": "FeatureCollection",
  "features": [
    {
      "type": "Feature",
      "properties": {
        "norad_id": 33886,
        "name": "IRIDIUM 33 DEB",
        "group": "iridium-33-debris",
        "lat": 85.93151844076688,
        "lon": -172.06165940597134,
        "alt_km": 772.7774154973758,
        "timestamp": "2025-12-04T10:51:50.490277+00:00",
        "meta_object_name": "IRIDIUM 33 DEB",
        "meta_object_id": "1997-051BF",
        "meta_epoch": "2025-12-04T01:12:42.454368",
        "meta_mean_motion": 14.36035454,
        "meta_eccentricity": 0.0012064,
        "meta_inclination": 86.3832,
        "meta_ra_of_asc_node": 70.8856,
        "meta_arg_of_pericenter": 275.1243,
        "meta_mean_anomaly": 258.9006,
        "meta_ephemeris_type": 0,
        "meta_classification_type": "U",
        "meta_norad_cat_id": 33886,
        "meta_element_set_no": 999,
        "meta_rev_at_epoch": 87927,
        "meta_bstar": 0.00039445,
        "meta_mean_motion_dot": 1.166e-05,
        "meta_mean_motion_ddot": 0,
        "tle_line1": "1 33886U 97051BF  25338.05049137  .00001166  00000+0  39445-3 0  9991",
        "tle_line2": "2 33886  86.3832  70.8856 0012064 275.1243 258.9006 14.36035454879279"
      },
      "geometry": {
        "type": "Point",
        "coordinates": [
          -172.06165940597134,
          85.93151844076688
        ]
      }
    },
    {
      "type": "Feature",
      "properties": {
        "norad_id": 33887,
        "name": "IRIDIUM 33 DEB",
        "group": "iridium-33-debris",
        "lat": -6.865107002215811,
        "lon": 6.517755381052386,
        "alt_km": 771.4534406204757,
        "timestamp": "2025-12-04T10:51:50.490289+00:00",
        "meta_object_name": "IRIDIUM 33 DEB",
        "meta_object_id": "1997-051BG",
        "meta_epoch": "2025-12-04T02:49:23.956032",
        "meta_mean_motion": 14.37209414,
        "meta_eccentricity": 0.0004037,
        "meta_inclination": 86.3051,
        "meta_ra_of_asc_node": 7.1078,
        "meta_arg_of_pericenter": 267.9412,
        "meta_mean_anomaly": 152.9243,
        "meta_ephemeris_type": 0,
        "meta_classification_type": "U",
        "meta_norad_cat_id": 33887,
        "meta_element_set_no": 999,
        "meta_rev_at_epoch": 88041,
        "meta_bstar": 0.00026792,
        "meta_mean_motion_dot": 8.17e-06,
        "meta_mean_motion_ddot": 0,
        "tle_line1": "1 33887U 97051BG  25338.11763838  .00000817  00000+0  26792-3 0  9993",
        "tle_line2": "2 33887  86.3051   7.1078 0004037 267.9412 152.9243 14.37209414880414"
      },
      "geometry": {
        "type": "Point",
        "coordinates": [
          6.517755381052386,
          -6.865107002215811
        ]
      }
    },
    {
      "type": "Feature",
      "properties": {
        "norad_id": 33953,
        "name": "IRIDIUM 33 DEB",
        "group": "iridium-33-debris",
        "lat": 30.819684670150085,
        "lon": 59.53680586422993,
        "alt_km": 708.7572392032334,
        "timestamp": "2025-12-04T10:51:50.490300+00:00",
        "meta_object_name": "IRIDIUM 33 DEB",
        "meta_object_id": "1997-051BN",
        "meta_epoch": "2025-12-03T23:44:08.152800",
        "meta_mean_motion": 14.55176293,
        "meta_eccentricity": 0.0018536,
        "meta_inclination": 86.3856,
        "meta_ra_of_asc_node": 57.5768,
        "meta_arg_of_pericenter": 129.5034,
        "meta_mean_anomaly": 354.176,
        "meta_ephemeris_type": 0,
        "meta_classification_type": "U",
        "meta_norad_cat_id": 33953,
        "meta_element_set_no": 999,
        "meta_rev_at_epoch": 88176,
        "meta_bstar": 0.0026744,
        "meta_mean_motion_dot": 0.00011614,
        "meta_mean_motion_ddot": 0,
        "tle_line1": "1 33953U 97051BN  25337.98898325  .00011614  00000+0  26744-2 0  9994",
        "tle_line2": "2 33953  86.3856  57.5768 0018536 129.5034 354.1760 14.55176293881765"
      },
      "geometry": {
        "type": "Point",
        "coordinates": [
          59.53680586422993,
          30.819684670150085
        ]
      }
    },
    {
      "type": "Feature",
      "properties": {
        "norad_id": 33960,
        "name": "IRIDIUM 33 DEB",
        "group": "iridium-33-debris",
        "lat": 33.67902043855649,
        "lon": -64.07815365787724,
        "alt_km": 609.3359746198385,
        "timestamp": "2025-12-04T10:51:50.490312+00:00",
        "meta_object_name": "IRIDIUM 33 DEB",
        "meta_object_id": "1997-051BV",
        "meta_epoch": "2025-12-03T22:02:56.046336",
        "meta_mean_motion": 14.84433668,
        "meta_eccentricity": 0.0007038,
        "meta_inclination": 86.253,
        "meta_ra_of_asc_node": 293.6703,
        "meta_arg_of_pericenter": 74.2098,
        "meta_mean_anomaly": 348.0492,
        "meta_ephemeris_type": 0,
        "meta_classification_type": "U",
        "meta_norad_cat_id": 33960,
        "meta_element_set_no": 999,
        "meta_rev_at_epoch": 88736,
        "meta_bstar": 0.006117,
        "meta_mean_motion_dot": 0.00051818,
        "meta_mean_motion_ddot": 0,
        "tle_line1": "1 33960U 97051BV  25337.91870424  .00051818  00000+0  61170-2 0  9997",
        "tle_line2": "2 33960  86.2530 293.6703 0007038  74.2098 348.0492 14.84433668887364"
      },
      "geometry": {
        "type": "Point",
        "coordinates": [
          -64.07815365787724,
          33.67902043855649
        ]
      }
    },
    {
      "type": "Feature",
      "properties": {
        "norad_id": 33966,
        "name": "IRIDIUM 33 DEB",
        "group": "iridium-33-debris",
        "lat": -33.152712131307815,
        "lon": 47.221908955629544,
        "alt_km": 734.874980314401,
        "timestamp": "2025-12-04T10:51:50.490322+00:00",
        "meta_object_name": "IRIDIUM 33 DEB",
        "meta_object_id": "1997-051CB",
        "meta_epoch": "2025-12-04T02:56:26.083968",
        "meta_mean_motion": 14.49537035,
        "meta_eccentricity": 0.0006451,
        "meta_inclination": 86.3932,
        "meta_ra_of_asc_node": 49.7248,
        "meta_arg_of_pericenter": 219.0529,
        "meta_mean_anomaly": 186.0597,
        "meta_ephemeris_type": 0,
        "meta_classification_type": "U",
        "meta_norad_cat_id": 33966,
        "meta_element_set_no": 999,
        "meta_rev_at_epoch": 88317,
        "meta_bstar": 0.0012209,
        "meta_mean_motion_dot": 4.701e-05,
        "meta_mean_motion_ddot": 0,
        "tle_line1": "1 33966U 97051CB  25338.12252412  .00004701  00000+0  12209-2 0  9996",
        "tle_line2": "2 33966  86.3932  49.7248 0006451 219.0529 186.0597 14.49537035883172"
      },
      "geometry": {
        "type": "Point",
        "coordinates": [
          47.221908955629544,
          -33.152712131307815
        ]
      }
    },
    {
      "type": "Feature",
      "properties": {
        "norad_id": 34071,
        "name": "IRIDIUM 33 DEB",
        "group": "iridium-33-debris",
        "lat": 36.79526341087278,
        "lon": 24.16964682582705,
        "alt_km": 725.3929277881816,
        "timestamp": "2025-12-04T10:51:50.490333+00:00",
        "meta_object_name": "IRIDIUM 33 DEB",
        "meta_object_id": "1997-051CE",
        "meta_epoch": "2025-12-04T02:24:35.019648",
        "meta_mean_motion": 14.49404394,
        "meta_eccentricity": 0.0009494,
        "meta_inclination": 86.3465,
        "meta_ra_of_asc_node": 21.5834,
        "meta_arg_of_pericenter": 130.9901,
        "meta_mean_anomaly": 229.2125,
        "meta_ephemeris_type": 0,
        "meta_classification_type": "U",
        "meta_norad_cat_id": 34071,
        "meta_element_set_no": 999,
        "meta_rev_at_epoch": 88209,
        "meta_bstar": 0.0012417,
        "meta_mean_motion_dot": 4.769e-05,
        "meta_mean_motion_ddot": 0,
        "tle_line1": "1 34071U 97051CE  25338.10040532  .00004769  00000+0  12417-2 0  9995",
        "tle_line2": "2 34071  86.3465  21.5834 0009494 130.9901 229.2125 14.49404394882093"
      },
      "geometry": {
        "type": "Point",
        "coordinates": [
          24.16964682582705,
          36.79526341087278
        ]
      }
    },
    {
      "type": "Feature",
      "properties": {
        "norad_id": 34077,
        "name": "IRIDIUM 33 DEB",
        "group": "iridium-33-debris",
        "lat": 36.123164228766214,
        "lon": -127.48555068331233,
        "alt_km": 674.3266793118437,
        "timestamp": "2025-12-04T10:51:50.490344+00:00",
        "meta_object_name": "IRIDIUM 33 DEB",
        "meta_object_id": "1997-051CL",
        "meta_epoch": "2025-12-04T03:49:43.202784",
        "meta_mean_motion": 14.64610306,
        "meta_eccentricity": 0.0010902,
        "meta_inclination": 86.3873,
        "meta_ra_of_asc_node": 55.2863,
        "meta_arg_of_pericenter": 66.3634,
        "meta_mean_anomaly": 332.6052,
        "meta_ephemeris_type": 0,
        "meta_classification_type": "U",
        "meta_norad_cat_id": 34077,
        "meta_element_set_no": 999,
        "meta_rev_at_epoch": 88207,
        "meta_bstar": 0.0039797,
        "meta_mean_motion_dot": 0.00021218,
        "meta_mean_motion_ddot": 0,
        "tle_line1": "1 34077U 97051CL  25338.15952781  .00021218  00000+0  39797-2 0  9992",
        "tle_line2": "2 34077  86.3873  55.2863 0010902  66.3634 332.6052 14.64610306882074"
      },
      "geometry": {
        "type": "Point",
        "coordinates": [
          -127.48555068331233,
          36.123164228766214
        ]
      }
    }
  ]
}